OBJECT_NAME,OBJECT_ID,EPOCH,MEAN_MOTION,ECCENTRICITY,INCLINATION,RA_OF_ASC_NODE,ARG_OF_PERICENTER,MEAN_ANOMALY,EPHEMERIS_TYPE,CLASSIFICATION_TYPE,NORAD_CAT_ID,ELEMENT_SET_NO,REV_AT_EPOCH,BSTAR,MEAN_MOTION_DOT,MEAN_MOTION_DDOT
ONEWEB-0604,2022-166AC,2026-02-07T16:53:05.827488,13.21825295,.00015469,87.9191,269.7934,89.7890,270.3422,0,U,54668,999,15433,.15522078E-3,.77E-6,0
ONEWEB-0605,2022-166AD,2026-02-07T16:43:38.103456,13.21825965,.00020353,87.9185,269.8213,71.4764,288.6591,0,U,54669,999,15440,.22830081E-4,.22E-6,0
ONEWEB-0606,2022-166AE,2026-02-07T15:25:24.877056,13.21824357,.0001635,87.9190,269.8445,92.6660,267.4661,0,U,54670,999,15445,.51717E-4,.34E-6,0
ONEWEB-0607,2022-166AF,2026-02-07T16:27:01.669536,13.21823868,.00015427,87.9189,269.7993,77.5372,282.5934,0,U,54671,999,15443,.12744193E-3,.66E-6,0
ONEWEB-0608,2022-166AG,2026-02-07T16:36:31.401504,13.21826096,.00018452,87.9195,269.7901,70.5287,289.6046,0,U,54672,999,15444,-.56095284E-4,-.1E-6,0
ONEWEB-0610,2022-166AH,2026-02-07T16:08:05.245152,13.21825525,.00018322,87.9186,269.8211,65.5881,294.5444,0,U,54673,999,15434,.16398947E-3,.81E-6,0
ONEWEB-0611,2022-166AJ,2026-02-07T15:58:35.856192,13.21823799,.00014515,87.9188,269.8184,89.8761,270.2539,0,U,54674,999,15433,.37485579E-4,.28E-6,0
ONEWEB-0612,2022-166AK,2026-02-07T16:17:34.496736,13.21826981,.00015756,87.9195,269.7974,78.2050,281.9260,0,U,54675,999,15432,.14810508E-3,.74E-6,0
ONEWEB-0615,2022-166AL,2026-02-07T15:49:06.588192,13.21824476,.0001577,87.9186,269.8268,77.5728,282.5582,0,U,54676,999,15433,-.35519E-3,-.134E-5,0
ONEWEB-0655,2022-166AM,2026-02-07T15:13:33.906144,13.21824676,.0001337,87.9190,269.8348,74.2030,285.9251,0,U,54677,999,15432,-.29471E-3,-.109E-5,0
ONEWEB-0659,2022-166AN,2026-02-07T10:10:39.788832,13.21577508,.00035138,87.9202,269.8798,66.8210,293.3293,0,U,54678,999,15438,-.76210602E-1,-.31239E-3,0
ONEWEB-0685,2022-166AP,2026-02-07T16:00:01.999584,13.21819495,.00015815,87.9177,269.8260,77.7977,357.1191,0,U,54679,999,522,-.30628665E-1,-.12618E-3,0
ONEWEB-0712,2022-166AQ,2026-02-07T15:17:32.772768,13.16594714,.0001014,87.9007,254.5593,81.6742,278.4503,0,U,54680,999,15501,.95669E-4,.49E-6,0
ONEWEB-0714,2022-166AR,2026-02-07T15:46:44.738400,13.21826123,.0001475,87.9184,269.8207,79.7434,280.3867,0,U,54681,999,15442,.19533E-3,.94E-6,0
DONGPO 09,2022-167D,2026-02-07T22:17:45.869568,15.33007752,.00023992,97.6764,204.5607,207.7366,152.3748,0,U,54685,999,17562,.58845391E-3,.18706E-3,0
DONGPO 08,2022-167E,2026-02-07T23:00:52.517088,15.30671211,.00079578,97.6721,202.3525,263.8085,96.2248,0,U,54686,999,17553,.47594721E-3,.14053E-3,0
2022-167F,2022-167F,2026-02-07T23:18:50.020128,15.63755323,.00021236,97.6212,214.2431,162.5546,197.5786,0,U,54687,999,17648,.91184558E-3,.85761E-3,0
DONGPO 10,2022-167H,2026-02-07T23:08:35.280672,15.31399372,.00049434,97.6806,204.0094,205.0346,155.0655,0,U,54689,999,17556,.47617212E-3,.14374E-3,0
JILIN-1 GAOFEN 03D50,2022-167J,2026-02-07T22:59:24.631008,15.31382134,.00054591,97.6685,201.9074,198.4085,161.6959,0,U,54690,999,17555,.48201881E-3,.14546E-3,0
JIAOTONG 5 (HEAD-2H),2022-167K,2026-02-07T23:11:31.458048,15.64482988,.00017942,97.6193,218.7302,93.5070,266.6394,0,U,54691,999,17672,.95268768E-3,.92276E-3,0
JILIN-1 GAOFEN 03D47,2022-167L,2026-02-07T23:03:56.918016,15.30820595,.0007616,97.6791,203.5930,211.8879,148.1901,0,U,54692,999,17555,.47965044E-3,.14228E-3,0
JILIN-1 GAOFEN 03D49,2022-167N,2026-02-07T22:25:04.664064,15.33898614,.00054389,97.6670,203.6365,231.7975,128.2778,0,U,54694,999,17565,.51505873E-3,.16831E-3,0
JILIN-1 GAOFEN 03D48,2022-167P,2026-02-07T22:56:25.311264,15.32023862,.00063173,97.6737,203.3528,212.2043,147.8813,0,U,54695,999,17558,.49931655E-3,.15379E-3,0
SHIYAN-20A (SY-20A),2022-169A,2026-02-07T23:29:56.743872,14.29483085,.00193646,59.9980,307.4475,108.3786,251.9357,0,U,54699,999,16488,.98693501E-4,.117E-5,0
SHIYAN-20B (SY-20B),2022-169B,2026-02-07T23:37:01.196832,14.29491387,.00245326,59.9981,307.5040,115.2262,245.1320,0,U,54700,999,16488,.11765936E-3,.166E-5,0
GALAXY 35 (G-35),2022-170A,2026-02-07T21:23:15.245088,1.00270951,.00019838,0.0106,163.0796,161.0482,41.5553,0,U,54741,999,1159,0,-.156E-5,0
GALAXY 36 (G-36),2022-170B,2026-02-07T21:24:22.637088,1.00272120,.0001567,0.0226,117.2661,270.3488,342.4589,0,U,54742,999,1147,0,-.18E-5,0
METEOSAT-12 (MTG-I1),2022-170C,2026-02-07T22:06:38.793312,1.00271031,.00019484,0.7131,25.3684,275.2205,168.7335,0,U,54743,999,1168,0,-.3E-7,0
YAOGAN-36 04A,2022-171A,2026-02-07T22:20:08.452032,15.19142971,.00078875,34.9907,310.8447,221.0055,139.0066,0,U,54746,999,17544,.42744119E-3,.9177E-4,0
YAOGAN-36 04B,2022-171C,2026-02-07T22:52:44.167872,15.22999828,.00080723,35.0033,287.6298,121.0609,239.0899,0,U,54748,999,17567,.63259606E-3,.15246E-3,0
