ONEWEB-0604             
1 54668U 22166AC  26038.70353967  .00000077  00000+0  15522-3 0  9996
2 54668  87.9191 269.7934 0001546  89.7890 270.3422 13.21825295154337
ONEWEB-0605             
1 54669U 22166AD  26038.69696879  .00000022  00000+0  22830-4 0  9998
2 54669  87.9185 269.8213 0002035  71.4764 288.6591 13.21825965154405
ONEWEB-0606             
1 54670U 22166AE  26038.64264904  .00000034  00000+0  51717-4 0  9994
2 54670  87.9190 269.8445 0001635  92.6660 267.4661 13.21824357154457
ONEWEB-0607             
1 54671U 22166AF  26038.68543599  .00000066  00000+0  12744-3 0  9990
2 54671  87.9189 269.7993 0001542  77.5372 282.5934 13.21823868154437
ONEWEB-0608             
1 54672U 22166AG  26038.69203011 -.00000010  00000+0 -56095-4 0  9993
2 54672  87.9195 269.7901 0001845  70.5287 289.6046 13.21826096154447
ONEWEB-0610             
1 54673U 22166AH  26038.67228293  .00000081  00000+0  16399-3 0  9999
2 54673  87.9186 269.8211 0001832  65.5881 294.5444 13.21825525154345
ONEWEB-0611             
1 54674U 22166AJ  26038.66569278  .00000028  00000+0  37486-4 0  9992
2 54674  87.9188 269.8184 0001451  89.8761 270.2539 13.21823799154336
ONEWEB-0612             
1 54675U 22166AK  26038.67887149  .00000074  00000+0  14811-3 0  9991
2 54675  87.9195 269.7974 0001575  78.2050 281.9260 13.21826981154326
ONEWEB-0615             
1 54676U 22166AL  26038.65910403 -.00000134  00000+0 -35519-3 0  9997
2 54676  87.9186 269.8268 0001577  77.5728 282.5582 13.21824476154332
ONEWEB-0655             
1 54677U 22166AM  26038.63442021 -.00000109  00000+0 -29471-3 0  9994
2 54677  87.9190 269.8348 0001337  74.2030 285.9251 13.21824676154322
ONEWEB-0659             
1 54678U 22166AN  26038.42407163 -.00031239  00000+0 -76211-1 0  9990
2 54678  87.9202 269.8798 0003513  66.8210 293.3293 13.21577508154385
ONEWEB-0685             
1 54679U 22166AP  26038.66668981 -.00012618  00000+0 -30629-1 0  9997
2 54679  87.9177 269.8260 0001581  77.7977 357.1191 13.21819495  5223
ONEWEB-0712             
1 54680U 22166AQ  26038.63718487  .00000049  00000+0  95669-4 0  9994
2 54680  87.9007 254.5593 0001014  81.6742 278.4503 13.16594714155015
ONEWEB-0714             
1 54681U 22166AR  26038.65746225  .00000094  00000+0  19533-3 0  9993
2 54681  87.9184 269.8207 0001475  79.7434 280.3867 13.21826123154427
DONGPO 09               
1 54685U 22167D   26038.92900312  .00018706  00000+0  58845-3 0  9995
2 54685  97.6764 204.5607 0002399 207.7366 152.3748 15.33007752175621
DONGPO 08               
1 54686U 22167E   26038.95894117  .00014053  00000+0  47595-3 0  9995
2 54686  97.6721 202.3525 0007957 263.8085  96.2248 15.30671211175531
2022-167F               
1 54687U 22167F   26038.97141227  .00085761  00000+0  91185-3 0  9993
2 54687  97.6212 214.2431 0002123 162.5546 197.5786 15.63755323176482
DONGPO 10               
1 54689U 22167H   26038.96429723  .00014374  00000+0  47617-3 0  9997
2 54689  97.6806 204.0094 0004943 205.0346 155.0655 15.31399372175563
JILIN-1 GAOFEN 03D50    
1 54690U 22167J   26038.95792397  .00014546  00000+0  48202-3 0  9990
2 54690  97.6685 201.9074 0005459 198.4085 161.6959 15.31382134175559
JIAOTONG 5 (HEAD-2H)    
1 54691U 22167K   26038.96633632  .00092276  00000+0  95269-3 0  9999
2 54691  97.6193 218.7302 0001794  93.5070 266.6394 15.64482988176724
JILIN-1 GAOFEN 03D47    
1 54692U 22167L   26038.96107544  .00014228  00000+0  47965-3 0  9999
2 54692  97.6791 203.5930 0007616 211.8879 148.1901 15.30820595175550
JILIN-1 GAOFEN 03D49    
1 54694U 22167N   26038.93408176  .00016831  00000+0  51506-3 0  9991
2 54694  97.6670 203.6365 0005438 231.7975 128.2778 15.33898614175651
JILIN-1 GAOFEN 03D48    
1 54695U 22167P   26038.95584851  .00015379  00000+0  49932-3 0  9995
2 54695  97.6737 203.3528 0006317 212.2043 147.8813 15.32023862175584
SHIYAN-20A (SY-20A)     
1 54699U 22169A   26038.97912898  .00000117  00000+0  98694-4 0  9993
2 54699  59.9980 307.4475 0019364 108.3786 251.9357 14.29483085164884
SHIYAN-20B (SY-20B)     
1 54700U 22169B   26038.98404163  .00000166  00000+0  11766-3 0  9996
2 54700  59.9981 307.5040 0024532 115.2262 245.1320 14.29491387164885
GALAXY 35 (G-35)        
1 54741U 22170A   26038.89114867 -.00000156  00000+0  00000+0 0  9997
2 54741   0.0106 163.0796 0001983 161.0482  41.5553  1.00270951 11599
GALAXY 36 (G-36)        
1 54742U 22170B   26038.89192867 -.00000180  00000+0  00000+0 0  9991
2 54742   0.0226 117.2661 0001567 270.3488 342.4589  1.00272120 11472
METEOSAT-12 (MTG-I1)    
1 54743U 22170C   26038.92128233 -.00000003  00000+0  00000+0 0  9996
2 54743   0.7131  25.3684 0001948 275.2205 168.7335  1.00271031 11684
YAOGAN-36 04A           
1 54746U 22171A   26038.93065338  .00009177  00000+0  42744-3 0  9992
2 54746  34.9907 310.8447 0007887 221.0055 139.0066 15.19142971175448
YAOGAN-36 04B           
1 54748U 22171C   26038.95328898  .00015246  00000+0  63260-3 0  9999
2 54748  35.0033 287.6298 0008072 121.0609 239.0899 15.22999828175673
